ONEWEB-0228             
1 48780U 21045P   24260.59296414  .00000120  00000+0  28436-3 0  9991
2 48780  87.9087  26.2577 0001694 102.8347 257.2972 13.15550685160361
